{
  "type": "FeatureCollection",
  "features": [
    {
      "type": "Feature",
      "properties": {
        "norad_id": 30947,
        "name": "FENGYUN 1C DEB",
        "group": "fengyun-1c-debris",
        "lat": -36.03130554327528,
        "lon": -101.78076918402905,
        "alt_km": 805.5817651916277,
        "timestamp": "2025-12-27T17:24:57.685065+00:00",
        "meta_object_name": "FENGYUN 1C DEB",
        "meta_object_id": "1999-025BAM",
        "meta_epoch": "2025-12-26T23:13:09.504768",
        "meta_mean_motion": 14.38066132,
        "meta_eccentricity": 0.00960007,
        "meta_inclination": 98.8085,
        "meta_ra_of_asc_node": 250.966,
        "meta_arg_of_pericenter": 205.2162,
        "meta_mean_anomaly": 154.4322,
        "meta_ephemeris_type": 0,
        "meta_classification_type": "U",
        "meta_norad_cat_id": 30947,
        "meta_element_set_no": 999,
        "meta_rev_at_epoch": 98697,
        "meta_bstar": 0.00029406522,
        "meta_mean_motion_dot": 8.91e-06,
        "meta_mean_motion_ddot": 0,
        "tle_line1": "1 30947U 99025BAM 25360.96747112  .00000891  00000+0  29407-3 0  9993",
        "tle_line2": "2 30947  98.8085 250.9660 0096000 205.2162 154.4322 14.38066132986978"
      },
      "geometry": {
        "type": "Point",
        "coordinates": [
          -101.78076918402905,
          -36.03130554327528
        ]
      }
    },
    {
      "type": "Feature",
      "properties": {
        "norad_id": 30949,
        "name": "FENGYUN 1C DEB",
        "group": "fengyun-1c-debris",
        "lat": 37.64339256184489,
        "lon": -11.101906980496532,
        "alt_km": 897.7079112812698,
        "timestamp": "2025-12-27T17:24:57.685075+00:00",
        "meta_object_name": "FENGYUN 1C DEB",
        "meta_object_id": "1999-025BAP",
        "meta_epoch": "2025-12-27T11:10:30.012960",
        "meta_mean_motion": 14.14063796,
        "meta_eccentricity": 0.011604,
        "meta_inclination": 98.6986,
        "meta_ra_of_asc_node": 355.4264,
        "meta_arg_of_pericenter": 267.4841,
        "meta_mean_anomaly": 246.7225,
        "meta_ephemeris_type": 0,
        "meta_classification_type": "U",
        "meta_norad_cat_id": 30949,
        "meta_element_set_no": 999,
        "meta_rev_at_epoch": 96724,
        "meta_bstar": 0.00027279,
        "meta_mean_motion_dot": 5.09e-06,
        "meta_mean_motion_ddot": 0,
        "tle_line1": "1 30949U 99025BAP 25361.46562515  .00000509  00000+0  27279-3 0  9994",
        "tle_line2": "2 30949  98.6986 355.4264 0116040 267.4841 246.7225 14.14063796967243"
      },
      "geometry": {
        "type": "Point",
        "coordinates": [
          -11.101906980496532,
          37.64339256184489
        ]
      }
    },
    {
      "type": "Feature",
      "properties": {
        "norad_id": 30954,
        "name": "FENGYUN 1C DEB",
        "group": "fengyun-1c-debris",
        "lat": 50.05631774912622,
        "lon": -67.95900190250201,
        "alt_km": 748.0603789417037,
        "timestamp": "2025-12-27T17:24:57.685089+00:00",
        "meta_object_name": "FENGYUN 1C DEB",
        "meta_object_id": "1999-025BAU",
        "meta_epoch": "2025-12-27T02:07:18.153120",
        "meta_mean_motion": 14.14999136,
        "meta_eccentricity": 0.01288439,
        "meta_inclination": 98.7116,
        "meta_ra_of_asc_node": 100.8688,
        "meta_arg_of_pericenter": 146.6738,
        "meta_mean_anomaly": 338.3933,
        "meta_ephemeris_type": 0,
        "meta_classification_type": "U",
        "meta_norad_cat_id": 30954,
        "meta_element_set_no": 999,
        "meta_rev_at_epoch": 96590,
        "meta_bstar": 0.0013451381,
        "meta_mean_motion_dot": 2.779e-05,
        "meta_mean_motion_ddot": 0,
        "tle_line1": "1 30954U 99025BAU 25361.08840455  .00002779  00000+0  13451-2 0  9997",
        "tle_line2": "2 30954  98.7116 100.8688 0128843 146.6738 338.3933 14.14999136965905"
      },
      "geometry": {
        "type": "Point",
        "coordinates": [
          -67.95900190250201,
          50.05631774912622
        ]
      }
    },
    {
      "type": "Feature",
      "properties": {
        "norad_id": 30956,
        "name": "FENGYUN 1C DEB",
        "group": "fengyun-1c-debris",
        "lat": 80.7362970141474,
        "lon": -35.51839472160716,
        "alt_km": 867.3168180376733,
        "timestamp": "2025-12-27T17:24:57.685099+00:00",
        "meta_object_name": "FENGYUN 1C DEB",
        "meta_object_id": "1999-025BAW",
        "meta_epoch": "2025-12-26T02:13:11.801280",
        "meta_mean_motion": 14.14253918,
        "meta_eccentricity": 0.00491981,
        "meta_inclination": 98.7599,
        "meta_ra_of_asc_node": 33.8477,
        "meta_arg_of_pericenter": 304.1342,
        "meta_mean_anomaly": 112.2138,
        "meta_ephemeris_type": 0,
        "meta_classification_type": "U",
        "meta_norad_cat_id": 30956,
        "meta_element_set_no": 999,
        "meta_rev_at_epoch": 96496,
        "meta_bstar": 0.0009001005,
        "meta_mean_motion_dot": 1.694e-05,
        "meta_mean_motion_ddot": 0,
        "tle_line1": "1 30956U 99025BAW 25360.09249770  .00001694  00000+0  90010-3 0  9994",
        "tle_line2": "2 30956  98.7599  33.8477 0049198 304.1342 112.2138 14.14253918964962"
      },
      "geometry": {
        "type": "Point",
        "coordinates": [
          -35.51839472160716,
          80.7362970141474
        ]
      }
    },
    {
      "type": "Feature",
      "properties": {
        "norad_id": 30960,
        "name": "FENGYUN 1C DEB",
        "group": "fengyun-1c-debris",
        "lat": -59.11140758207931,
        "lon": -76.19056184453677,
        "alt_km": 753.5939758814684,
        "timestamp": "2025-12-27T17:24:57.685109+00:00",
        "meta_object_name": "FENGYUN 1C DEB",
        "meta_object_id": "1999-025BBA",
        "meta_epoch": "2025-12-26T14:09:10.874016",
        "meta_mean_motion": 14.67134239,
        "meta_eccentricity": 0.0195894,
        "meta_inclination": 99.0007,
        "meta_ra_of_asc_node": 117.9267,
        "meta_arg_of_pericenter": 119.2795,
        "meta_mean_anomaly": 242.8143,
        "meta_ephemeris_type": 0,
        "meta_classification_type": "U",
        "meta_norad_cat_id": 30960,
        "meta_element_set_no": 999,
        "meta_rev_at_epoch": 98901,
        "meta_bstar": 0.0010081,
        "meta_mean_motion_dot": 7.504e-05,
        "meta_mean_motion_ddot": 0,
        "tle_line1": "1 30960U 99025BBA 25360.58970919  .00007504  00000+0  10081-2 0  9994",
        "tle_line2": "2 30960  99.0007 117.9267 0195894 119.2795 242.8143 14.67134239989019"
      },
      "geometry": {
        "type": "Point",
        "coordinates": [
          -76.19056184453677,
          -59.11140758207931
        ]
      }
    },
    {
      "type": "Feature",
      "properties": {
        "norad_id": 30967,
        "name": "FENGYUN 1C DEB",
        "group": "fengyun-1c-debris",
        "lat": -61.84899572966745,
        "lon": -34.51578333630009,
        "alt_km": 724.4156668912565,
        "timestamp": "2025-12-27T17:24:57.685119+00:00",
        "meta_object_name": "FENGYUN 1C DEB",
        "meta_object_id": "1999-025BBH",
        "meta_epoch": "2025-12-27T02:52:39.663264",
        "meta_mean_motion": 14.5723526,
        "meta_eccentricity": 0.00950218,
        "meta_inclination": 98.7661,
        "meta_ra_of_asc_node": 308.0866,
        "meta_arg_of_pericenter": 195.2083,
        "meta_mean_anomaly": 164.6253,
        "meta_ephemeris_type": 0,
        "meta_classification_type": "U",
        "meta_norad_cat_id": 30967,
        "meta_element_set_no": 999,
        "meta_rev_at_epoch": 99223,
        "meta_bstar": 0.00079332802,
        "meta_mean_motion_dot": 3.758e-05,
        "meta_mean_motion_ddot": 0,
        "tle_line1": "1 30967U 99025BBH 25361.11990351  .00003758  00000+0  79333-3 0  9996",
        "tle_line2": "2 30967  98.7661 308.0866 0095021 195.2083 164.6253 14.57235260992237"
      },
      "geometry": {
        "type": "Point",
        "coordinates": [
          -34.51578333630009,
          -61.84899572966745
        ]
      }
    },
    {
      "type": "Feature",
      "properties": {
        "norad_id": 30971,
        "name": "FENGYUN 1C DEB",
        "group": "fengyun-1c-debris",
        "lat": -27.51854705735474,
        "lon": -137.30621161684047,
        "alt_km": 606.7394181073314,
        "timestamp": "2025-12-27T17:24:57.685130+00:00",
        "meta_object_name": "FENGYUN 1C DEB",
        "meta_object_id": "1999-025BBM",
        "meta_epoch": "2025-12-26T09:33:58.447296",
        "meta_mean_motion": 14.71817648,
        "meta_eccentricity": 0.0164096,
        "meta_inclination": 99.2079,
        "meta_ra_of_asc_node": 46.0406,
        "meta_arg_of_pericenter": 149.0944,
        "meta_mean_anomaly": 229.5467,
        "meta_ephemeris_type": 0,
        "meta_classification_type": "U",
        "meta_norad_cat_id": 30971,
        "meta_element_set_no": 999,
        "meta_rev_at_epoch": 99918,
        "meta_bstar": 0.00054953,
        "meta_mean_motion_dot": 4.174e-05,
        "meta_mean_motion_ddot": 0,
        "tle_line1": "1 30971U 99025BBM 25360.39859314  .00004174  00000+0  54953-3 0  9997",
        "tle_line2": "2 30971  99.2079  46.0406 0164096 149.0944 229.5467 14.71817648999183"
      },
      "geometry": {
        "type": "Point",
        "coordinates": [
          -137.30621161684047,
          -27.51854705735474
        ]
      }
    }
  ]
}